[{"OBJECT_NAME":"INTELSAT 3-F8","OBJECT_ID":"1970-055A","EPOCH":"2026-03-06T18:57:20.736576","MEAN_MOTION":1.02263093,"ECCENTRICITY":0.0316548,"INCLINATION":5.2097,"RA_OF_ASC_NODE":70.4636,"ARG_OF_PERICENTER":113.7778,"MEAN_ANOMALY":238.8997,"EPHEMERIS_TYPE":0,"CLASSIFICATION_TYPE":"U","NORAD_CAT_ID":4478,"ELEMENT_SET_NO":999,"REV_AT_EPOCH":12177,"BSTAR":0,"MEAN_MOTION_DOT":-6.6e-7,"MEAN_MOTION_DDOT":0},{"OBJECT_NAME":"OPS 7329","OBJECT_ID":"1970-069A","EPOCH":"2026-03-06T05:00:34.138944","MEAN_MOTION":1.00176394,"ECCENTRICITY":0.10148058,"INCLINATION":10.5427,"RA_OF_ASC_NODE":160.3358,"ARG_OF_PERICENTER":105.4839,"MEAN_ANOMALY":262.5146,"EPHEMERIS_TYPE":0,"CLASSIFICATION_TYPE":"U","NORAD_CAT_ID":4510,"ELEMENT_SET_NO":999,"REV_AT_EPOCH":2375,"BSTAR":0,"MEAN_MOTION_DOT":-2.88e-6,"MEAN_MOTION_DDOT":0},{"OBJECT_NAME":"ATLAS AGENA D R/B","OBJECT_ID":"1970-046B","EPOCH":"2026-03-06T09:31:09.140448","MEAN_MOTION":1.00403259,"ECCENTRICITY":0.00312107,"INCLINATION":1.4327,"RA_OF_ASC_NODE":85.9355,"ARG_OF_PERICENTER":302.9648,"MEAN_ANOMALY":57.6495,"EPHEMERIS_TYPE":0,"CLASSIFICATION_TYPE":"U","NORAD_CAT_ID":4511,"ELEMENT_SET_NO":999,"REV_AT_EPOCH":2452,"BSTAR":0,"MEAN_MOTION_DOT":-2.65e-6,"MEAN_MOTION_DDOT":0},{"OBJECT_NAME":"OPS 5960 (DSP 1)","OBJECT_ID":"1970-093A","EPOCH":"2026-03-05T22:08:53.623968","MEAN_MOTION":1.20217049,"ECCENTRICITY":0.13650269,"INCLINATION":14.9792,"RA_OF_ASC_NODE":38.0972,"ARG_OF_PERICENTER":273.3218,"MEAN_ANOMALY":82.4216,"EPHEMERIS_TYPE":0,"CLASSIFICATION_TYPE":"U","NORAD_CAT_ID":4630,"ELEMENT_SET_NO":999,"REV_AT_EPOCH":24260,"BSTAR":0,"MEAN_MOTION_DOT":-1.56e-6,"MEAN_MOTION_DDOT":0},{"OBJECT_NAME":"TITAN 3C TRANSTAGE R/B","OBJECT_ID":"1970-093B","EPOCH":"2026-03-06T12:37:30.479808","MEAN_MOTION":1.20232017,"ECCENTRICITY":0.13710764,"INCLINATION":14.9808,"RA_OF_ASC_NODE":37.7672,"ARG_OF_PERICENTER":273.4215,"MEAN_ANOMALY":175.3519,"EPHEMERIS_TYPE":0,"CLASSIFICATION_TYPE":"U","NORAD_CAT_ID":4632,"ELEMENT_SET_NO":999,"REV_AT_EPOCH":14117,"BSTAR":0,"MEAN_MOTION_DOT":-1.55e-6,"MEAN_MOTION_DDOT":0},{"OBJECT_NAME":"ATLAS CENTAUR R/B","OBJECT_ID":"1971-006B","EPOCH":"2026-03-06T05:53:52.820736","MEAN_MOTION":2.20764335,"ECCENTRICITY":0.71907946,"INCLINATION":28.0756,"RA_OF_ASC_NODE":289.8009,"ARG_OF_PERICENTER":2.5641,"MEAN_ANOMALY":359.8513,"EPHEMERIS_TYPE":0,"CLASSIFICATION_TYPE":"U","NORAD_CAT_ID":4882,"ELEMENT_SET_NO":999,"REV_AT_EPOCH":44092,"BSTAR":0.0013556826,"MEAN_MOTION_DOT":-5.0e-8,"MEAN_MOTION_DDOT":0},{"OBJECT_NAME":"NATO 2B","OBJECT_ID":"1971-009A","EPOCH":"2026-03-06T13:27:29.865312","MEAN_MOTION":1.00272294,"ECCENTRICITY":9.75e-5,"INCLINATION":1.4026,"RA_OF_ASC_NODE":251.4388,"ARG_OF_PERICENTER":238.9641,"MEAN_ANOMALY":130.7735,"EPHEMERIS_TYPE":0,"CLASSIFICATION_TYPE":"U","NORAD_CAT_ID":4902,"ELEMENT_SET_NO":999,"REV_AT_EPOCH":11761,"BSTAR":0,"MEAN_MOTION_DOT":-9.3e-7,"MEAN_MOTION_DDOT":0},{"OBJECT_NAME":"TITAN 34B AGENA D R/B","OBJECT_ID":"1971-021B","EPOCH":"2026-03-02T22:48:24.680160","MEAN_MOTION":2.2008731,"ECCENTRICITY":0.72990152,"INCLINATION":63.5252,"RA_OF_ASC_NODE":31.4297,"ARG_OF_PERICENTER":267.2496,"MEAN_ANOMALY":15.5729,"EPHEMERIS_TYPE":0,"CLASSIFICATION_TYPE":"U","NORAD_CAT_ID":5054,"ELEMENT_SET_NO":999,"REV_AT_EPOCH":5477,"BSTAR":0.00070893234,"MEAN_MOTION_DOT":3.54e-6,"MEAN_MOTION_DDOT":0},{"OBJECT_NAME":"OPS 9431 (DSCS 2-1)","OBJECT_ID":"1971-095A","EPOCH":"2026-03-06T13:29:14.697888","MEAN_MOTION":1.00274373,"ECCENTRICITY":0.00061831,"INCLINATION":1.8497,"RA_OF_ASC_NODE":257.4178,"ARG_OF_PERICENTER":14.3957,"MEAN_ANOMALY":355.9524,"EPHEMERIS_TYPE":0,"CLASSIFICATION_TYPE":"U","NORAD_CAT_ID":5587,"ELEMENT_SET_NO":999,"REV_AT_EPOCH":12099,"BSTAR":0,"MEAN_MOTION_DOT":-1.32e-6,"MEAN_MOTION_DDOT":0},{"OBJECT_NAME":"OPS 9432 (DSCS 2-2)","OBJECT_ID":"1971-095B","EPOCH":"2026-03-06T19:47:00.974112","MEAN_MOTION":1.00248324,"ECCENTRICITY":0.000501,"INCLINATION":1.812,"RA_OF_ASC_NODE":258.7664,"ARG_OF_PERICENTER":65.2783,"MEAN_ANOMALY":282.8878,"EPHEMERIS_TYPE":0,"CLASSIFICATION_TYPE":"U","NORAD_CAT_ID":5588,"ELEMENT_SET_NO":999,"REV_AT_EPOCH":4633,"BSTAR":0,"MEAN_MOTION_DOT":-2.45e-6,"MEAN_MOTION_DDOT":0},{"OBJECT_NAME":"TITAN 3C TRANSTAGE R/B","OBJECT_ID":"1971-095C","EPOCH":"2026-03-06T18:10:32.725344","MEAN_MOTION":0.97189514,"ECCENTRICITY":0.0165989,"INCLINATION":3.5521,"RA_OF_ASC_NODE":274.6055,"ARG_OF_PERICENTER":184.0973,"MEAN_ANOMALY":144.8843,"EPHEMERIS_TYPE":0,"CLASSIFICATION_TYPE":"U","NORAD_CAT_ID":5589,"ELEMENT_SET_NO":999,"REV_AT_EPOCH":11842,"BSTAR":0,"MEAN_MOTION_DOT":-2.69e-6,"MEAN_MOTION_DDOT":0},{"OBJECT_NAME":"INTELSAT 4-F3","OBJECT_ID":"1971-116A","EPOCH":"2026-03-06T19:08:27.173472","MEAN_MOTION":0.99625556,"ECCENTRICITY":0.0010679,"INCLINATION":6.6436,"RA_OF_ASC_NODE":291.7589,"ARG_OF_PERICENTER":109.6717,"MEAN_ANOMALY":60.2323,"EPHEMERIS_TYPE":0,"CLASSIFICATION_TYPE":"U","NORAD_CAT_ID":5709,"ELEMENT_SET_NO":999,"REV_AT_EPOCH":11785,"BSTAR":0,"MEAN_MOTION_DOT":-5.3e-7,"MEAN_MOTION_DDOT":0},{"OBJECT_NAME":"INTELSAT 4-F4","OBJECT_ID":"1972-003A","EPOCH":"2026-03-06T12:03:31.084704","MEAN_MOTION":0.99834832,"ECCENTRICITY":0.00019829,"INCLINATION":6.9864,"RA_OF_ASC_NODE":295.2243,"ARG_OF_PERICENTER":81.0981,"MEAN_ANOMALY":289.4335,"EPHEMERIS_TYPE":0,"CLASSIFICATION_TYPE":"U","NORAD_CAT_ID":5775,"ELEMENT_SET_NO":999,"REV_AT_EPOCH":13637,"BSTAR":0,"MEAN_MOTION_DOT":-2.84e-6,"MEAN_MOTION_DDOT":0},{"OBJECT_NAME":"ATLAS CENTAUR R/B","OBJECT_ID":"1972-003B","EPOCH":"2026-03-06T11:20:15.677952","MEAN_MOTION":2.20979988,"ECCENTRICITY":0.7187891,"INCLINATION":28.5889,"RA_OF_ASC_NODE":350.0919,"ARG_OF_PERICENTER":208.2161,"MEAN_ANOMALY":354.4372,"EPHEMERIS_TYPE":0,"CLASSIFICATION_TYPE":"U","NORAD_CAT_ID":5816,"ELEMENT_SET_NO":999,"REV_AT_EPOCH":43608,"BSTAR":0.00046143567,"MEAN_MOTION_DOT":-1.66e-6,"MEAN_MOTION_DDOT":0},{"OBJECT_NAME":"OPS 1570 (DSP 3)","OBJECT_ID":"1972-010A","EPOCH":"2026-03-06T19:04:05.092032","MEAN_MOTION":0.99783779,"ECCENTRICITY":0.0010537,"INCLINATION":0.1635,"RA_OF_ASC_NODE":120.8686,"ARG_OF_PERICENTER":166.3521,"MEAN_ANOMALY":158.0407,"EPHEMERIS_TYPE":0,"CLASSIFICATION_TYPE":"U","NORAD_CAT_ID":5851,"ELEMENT_SET_NO":999,"REV_AT_EPOCH":2490,"BSTAR":0,"MEAN_MOTION_DOT":-1.3e-6,"MEAN_MOTION_DDOT":0},{"OBJECT_NAME":"TITAN 3C TRANSTAGE R/B","OBJECT_ID":"1972-010B","EPOCH":"2026-03-06T08:54:31.140864","MEAN_MOTION":1.0067883,"ECCENTRICITY":0.0063364,"INCLINATION":0.6638,"RA_OF_ASC_NODE":96.7729,"ARG_OF_PERICENTER":330.5985,"MEAN_ANOMALY":293.2683,"EPHEMERIS_TYPE":0,"CLASSIFICATION_TYPE":"U","NORAD_CAT_ID":5854,"ELEMENT_SET_NO":999,"REV_AT_EPOCH":2387,"BSTAR":0,"MEAN_MOTION_DOT":-6.6e-7,"MEAN_MOTION_DDOT":0},{"OBJECT_NAME":"INTELSAT 4-F5","OBJECT_ID":"1972-041A","EPOCH":"2026-03-05T16:27:50.420736","MEAN_MOTION":1.00094353,"ECCENTRICITY":0.00034526,"INCLINATION":5.9845,"RA_OF_ASC_NODE":287.8005,"ARG_OF_PERICENTER":326.0634,"MEAN_ANOMALY":33.7502,"EPHEMERIS_TYPE":0,"CLASSIFICATION_TYPE":"U","NORAD_CAT_ID":6052,"ELEMENT_SET_NO":999,"REV_AT_EPOCH":4562,"BSTAR":0,"MEAN_MOTION_DOT":3.2e-7,"MEAN_MOTION_DDOT":0},{"OBJECT_NAME":"ATLAS CENTAUR R/B","OBJECT_ID":"1972-041B","EPOCH":"2026-03-06T15:30:31.156416","MEAN_MOTION":2.22593773,"ECCENTRICITY":0.72244405,"INCLINATION":26.4901,"RA_OF_ASC_NODE":268.6033,"ARG_OF_PERICENTER":39.7313,"MEAN_ANOMALY":355.3615,"EPHEMERIS_TYPE":0,"CLASSIFICATION_TYPE":"U","NORAD_CAT_ID":6058,"ELEMENT_SET_NO":999,"REV_AT_EPOCH":43511,"BSTAR":0.0011029923,"MEAN_MOTION_DOT":9.1e-7,"MEAN_MOTION_DDOT":0},{"OBJECT_NAME":"OPS 9390","OBJECT_ID":"1972-101A","EPOCH":"2026-03-06T11:59:01.184928","MEAN_MOTION":1.00379839,"ECCENTRICITY":0.12338438,"INCLINATION":9.3175,"RA_OF_ASC_NODE":236.9038,"ARG_OF_PERICENTER":108.2399,"MEAN_ANOMALY":56.7335,"EPHEMERIS_TYPE":0,"CLASSIFICATION_TYPE":"U","NORAD_CAT_ID":6317,"ELEMENT_SET_NO":999,"REV_AT_EPOCH":2448,"BSTAR":0,"MEAN_MOTION_DOT":-2.1e-7,"MEAN_MOTION_DDOT":0},{"OBJECT_NAME":"ATLAS AGENA R/B","OBJECT_ID":"1972-101B","EPOCH":"2026-03-06T10:04:17.861088","MEAN_MOTION":1.02316606,"ECCENTRICITY":0.12375893,"INCLINATION":8.8154,"RA_OF_ASC_NODE":225.1518,"ARG_OF_PERICENTER":183.3889,"MEAN_ANOMALY":175.4943,"EPHEMERIS_TYPE":0,"CLASSIFICATION_TYPE":"U","NORAD_CAT_ID":6318,"ELEMENT_SET_NO":999,"REV_AT_EPOCH":2627,"BSTAR":0,"MEAN_MOTION_DOT":-2.9e-6,"MEAN_MOTION_DDOT":0},{"OBJECT_NAME":"OPS 6063","OBJECT_ID":"1973-013A","EPOCH":"2026-03-06T14:19:09.911136","MEAN_MOTION":1.00275095,"ECCENTRICITY":0.00123838,"INCLINATION":0.6027,"RA_OF_ASC_NODE":250.3457,"ARG_OF_PERICENTER":284.8228,"MEAN_ANOMALY":279.9319,"EPHEMERIS_TYPE":0,"CLASSIFICATION_TYPE":"U","NORAD_CAT_ID":6380,"ELEMENT_SET_NO":999,"REV_AT_EPOCH":2539,"BSTAR":0,"MEAN_MOTION_DOT":-1.01e-6,"MEAN_MOTION_DDOT":0},{"OBJECT_NAME":"ANIK A2 (TELESAT 2)","OBJECT_ID":"1973-023A","EPOCH":"2026-03-06T09:43:29.510688","MEAN_MOTION":0.99803336,"ECCENTRICITY":0.00118502,"INCLINATION":7.1694,"RA_OF_ASC_NODE":296.7035,"ARG_OF_PERICENTER":66.2244,"MEAN_ANOMALY":136.8376,"EPHEMERIS_TYPE":0,"CLASSIFICATION_TYPE":"U","NORAD_CAT_ID":6437,"ELEMENT_SET_NO":999,"REV_AT_EPOCH":4612,"BSTAR":0,"MEAN_MOTION_DOT":2.3e-7,"MEAN_MOTION_DDOT":0},{"OBJECT_NAME":"OPS 6157 (DSP 4)","OBJECT_ID":"1973-040A","EPOCH":"2026-03-06T18:13:38.703936","MEAN_MOTION":0.99829979,"ECCENTRICITY":0.0008597,"INCLINATION":1.1173,"RA_OF_ASC_NODE":232.4133,"ARG_OF_PERICENTER":63.2242,"MEAN_ANOMALY":314.3347,"EPHEMERIS_TYPE":0,"CLASSIFICATION_TYPE":"U","NORAD_CAT_ID":6691,"ELEMENT_SET_NO":999,"REV_AT_EPOCH":2492,"BSTAR":0,"MEAN_MOTION_DOT":-9.8e-7,"MEAN_MOTION_DDOT":0},{"OBJECT_NAME":"ATLAS CENTAUR R/B","OBJECT_ID":"1971-116B","EPOCH":"2026-03-06T01:30:11.670048","MEAN_MOTION":2.19673556,"ECCENTRICITY":0.71751426,"INCLINATION":28.1393,"RA_OF_ASC_NODE":55.2113,"ARG_OF_PERICENTER":94.2458,"MEAN_ANOMALY":343.1798,"EPHEMERIS_TYPE":0,"CLASSIFICATION_TYPE":"U","NORAD_CAT_ID":6779,"ELEMENT_SET_NO":999,"REV_AT_EPOCH":41319,"BSTAR":0.0013030485,"MEAN_MOTION_DOT":-1.37e-6,"MEAN_MOTION_DDOT":0}]
